{"type": "FeatureCollection", "features": [ {"type": "Feature", "properties": {"norad_id": 43683, "name": "BEIDOU-3 G1 (C59)", "group": "gnss", "lat": 0.3685609928965089, "lon": -85.58529614279396, "alt_km": 35788.077037268, "timestamp": "2025-12-07T03:52:32.739404+00:00", "meta": {"OBJECT_NAME": "BEIDOU-3 G1 (C59)", "OBJECT_ID": "2018-085A", "EPOCH": "2025-12-06T10:54:27.925632", "MEAN_MOTION": 1.0027266, "ECCENTRICITY": 0.0001888, "INCLINATION": 2.5912, "RA_OF_ASC_NODE": 103.1384, "ARG_OF_PERICENTER": 65.0418, "MEAN_ANOMALY": 210.9904, "EPHEMERIS_TYPE": 0, "CLASSIFICATION_TYPE": "U", "NORAD_CAT_ID": 43683, "ELEMENT_SET_NO": 999, "REV_AT_EPOCH": 2612, "BSTAR": 0, "MEAN_MOTION_DOT": -2.71e-06, "MEAN_MOTION_DDOT": 0}, "tle": {"line1": "1 43683U 18085A   25340.45448988 -.00000271  00000+0  00000+0 0  9999", "line2": "2 43683   2.5912 103.1384 0001888  65.0418 210.9904  1.00272660 26124"}}, "geometry": {"type": "Point", "coordinates": [-85.58529614279396, 0.3685609928965089]}}, {"type": "Feature", "properties": {"norad_id": 43687, "name": "COSMOS 2529 (757)", "group": "gnss", "lat": -58.526929554411254, "lon": 147.173152274158, "alt_km": 19120.83216587538, "timestamp": "2025-12-07T03:52:32.739422+00:00", "meta": {"OBJECT_NAME": "COSMOS 2529 (757)", "OBJECT_ID": "2018-086A", "EPOCH": "2025-12-03T00:44:36.468960", "MEAN_MOTION": 2.13101888, "ECCENTRICITY": 0.00072932, "INCLINATION": 64.2917, "RA_OF_ASC_NODE": 199.2166, "ARG_OF_PERICENTER": 254.4618, "MEAN_ANOMALY": 105.5545, "EPHEMERIS_TYPE": 0, "CLASSIFICATION_TYPE": "U", "NORAD_CAT_ID": 43687, "ELEMENT_SET_NO": 999, "REV_AT_EPOCH": 5510, "BSTAR": 0, "MEAN_MOTION_DOT": 1.06e-06, "MEAN_MOTION_DDOT": 0}, "tle": {"line1": "1 43687U 18086A   25337.03097765  .00000106  00000+0  00000+0 0  9993", "line2": "2 43687  64.2917 199.2166 0007293 254.4618 105.5545  2.13101888 55102"}}, "geometry": {"type": "Point", "coordinates": [147.173152274158, -58.526929554411254]}}, {"type": "Feature", "properties": {"norad_id": 43706, "name": "BEIDOU-3 M17 (C36)", "group": "gnss", "lat": 41.40022503635676, "lon": -131.60436659456593, "alt_km": 21528.83816378568, "timestamp": "2025-12-07T03:52:32.739440+00:00", "meta": {"OBJECT_NAME": "BEIDOU-3 M17 (C36)", "OBJECT_ID": "2018-093A", "EPOCH": "2025-12-03T14:10:37.280064", "MEAN_MOTION": 1.86228161, "ECCENTRICITY": 0.00063465, "INCLINATION": 54.1727, "RA_OF_ASC_NODE": 188.9327, "ARG_OF_PERICENTER": 306.3477, "MEAN_ANOMALY": 234.3147, "EPHEMERIS_TYPE": 0, "CLASSIFICATION_TYPE": "U", "NORAD_CAT_ID": 43706, "ELEMENT_SET_NO": 999, "REV_AT_EPOCH": 4789, "BSTAR": 0, "MEAN_MOTION_DOT": 1.14e-06, "MEAN_MOTION_DDOT": 0}, "tle": {"line1": "1 43706U 18093A   25337.59070926  .00000114  00000+0  00000+0 0  9993", "line2": "2 43706  54.1727 188.9327 0006346 306.3477 234.3147  1.86228161 47892"}}, "geometry": {"type": "Point", "coordinates": [-131.60436659456593, 41.40022503635676]}}, {"type": "Feature", "properties": {"norad_id": 43707, "name": "BEIDOU-3 M18 (C37)", "group": "gnss", "lat": 25.74107964188111, "lon": -11.578935130023927, "alt_km": 21541.590233853192, "timestamp": "2025-12-07T03:52:32.739459+00:00", "meta": {"OBJECT_NAME": "BEIDOU-3 M18 (C37)", "OBJECT_ID": "2018-093B", "EPOCH": "2025-12-04T06:09:34.457184", "MEAN_MOTION": 1.86226429, "ECCENTRICITY": 0.0006367, "INCLINATION": 54.1734, "RA_OF_ASC_NODE": 188.9019, "ARG_OF_PERICENTER": 351.3735, "MEAN_ANOMALY": 8.7081, "EPHEMERIS_TYPE": 0, "CLASSIFICATION_TYPE": "U", "NORAD_CAT_ID": 43707, "ELEMENT_SET_NO": 999, "REV_AT_EPOCH": 4790, "BSTAR": 0, "MEAN_MOTION_DOT": 1.06e-06, "MEAN_MOTION_DDOT": 0}, "tle": {"line1": "1 43707U 18093B   25338.25664881  .00000106  00000+0  00000+0 0  9998", "line2": "2 43707  54.1734 188.9019 0006367 351.3735   8.7081  1.86226429 47906"}}, "geometry": {"type": "Point", "coordinates": [-11.578935130023927, 25.74107964188111]}}, {"type": "Feature", "properties": {"norad_id": 43873, "name": "GPS BIII-1  (PRN 04)", "group": "gnss", "lat": 53.00110006998948, "lon": 165.19543369785947, "alt_km": 20224.749532527967, "timestamp": "2025-12-07T03:52:32.739479+00:00", "meta": {"OBJECT_NAME": "GPS BIII-1  (PRN 04)", "OBJECT_ID": "2018-109A", "EPOCH": "2025-12-06T13:44:13.581888", "MEAN_MOTION": 2.00553236, "ECCENTRICITY": 0.00371783, "INCLINATION": 55.5639, "RA_OF_ASC_NODE": 99.7903, "ARG_OF_PERICENTER": 194.7301, "MEAN_ANOMALY": 175.7639, "EPHEMERIS_TYPE": 0, "CLASSIFICATION_TYPE": "U", "NORAD_CAT_ID": 43873, "ELEMENT_SET_NO": 999, "REV_AT_EPOCH": 5121, "BSTAR": 0, "MEAN_MOTION_DOT": -4e-08, "MEAN_MOTION_DDOT": 0}, "tle": {"line1": "1 43873U 18109A   25340.57237942 -.00000004  00000+0  00000+0 0  9990", "line2": "2 43873  55.5639  99.7903 0037178 194.7301 175.7639  2.00553236 51211"}}, "geometry": {"type": "Point", "coordinates": [165.19543369785947, 53.00110006998948]}}, {"type": "Feature", "properties": {"norad_id": 44204, "name": "BEIDOU-3 IGSO-1 (C38)", "group": "gnss", "lat": -23.79681171046583, "lon": -124.6126653177904, "alt_km": 35685.39820395118, "timestamp": "2025-12-07T03:52:32.739497+00:00", "meta": {"OBJECT_NAME": "BEIDOU-3 IGSO-1 (C38)", "OBJECT_ID": "2019-023A", "EPOCH": "2025-11-19T14:15:02.708640", "MEAN_MOTION": 1.00252177, "ECCENTRICITY": 0.0026966, "INCLINATION": 58.4003, "RA_OF_ASC_NODE": 39.8168, "ARG_OF_PERICENTER": 221.2202, "MEAN_ANOMALY": 126.9723, "EPHEMERIS_TYPE": 0, "CLASSIFICATION_TYPE": "U", "NORAD_CAT_ID": 44204, "ELEMENT_SET_NO": 999, "REV_AT_EPOCH": 510, "BSTAR": 0, "MEAN_MOTION_DOT": -2.26e-06, "MEAN_MOTION_DDOT": 0}, "tle": {"line1": "1 44204U 19023A   25323.59378135 -.00000226  00000+0  00000+0 0  9994", "line2": "2 44204  58.4003  39.8168 0026966 221.2202 126.9723  1.00252177  5102"}}, "geometry": {"type": "Point", "coordinates": [-124.6126653177904, -23.79681171046583]}}, {"type": "Feature", "properties": {"norad_id": 44231, "name": "BEIDOU-2 G8 (C01)", "group": "gnss", "lat": -0.6942797395224882, "lon": -81.21189539921873, "alt_km": 35764.17990479829, "timestamp": "2025-12-07T03:52:32.739524+00:00", "meta": {"OBJECT_NAME": "BEIDOU-2 G8 (C01)", "OBJECT_ID": "2019-027A", "EPOCH": "2025-12-06T13:53:51.604800", "MEAN_MOTION": 1.00269342, "ECCENTRICITY": 0.00085365, "INCLINATION": 1.6457, "RA_OF_ASC_NODE": 74.7153, "ARG_OF_PERICENTER": 254.905, "MEAN_ANOMALY": 99.018, "EPHEMERIS_TYPE": 0, "CLASSIFICATION_TYPE": "U", "NORAD_CAT_ID": 44231, "ELEMENT_SET_NO": 999, "REV_AT_EPOCH": 2414, "BSTAR": 0, "MEAN_MOTION_DOT": -2.41e-06, "MEAN_MOTION_DDOT": 0}, "tle": {"line1": "1 44231U 19027A   25340.57906950 -.00000241  00000+0  00000+0 0  9994", "line2": "2 44231   1.6457  74.7153 0008536 254.9050  99.0180  1.00269342 24148"}}, "geometry": {"type": "Point", "coordinates": [-81.21189539921873, -0.6942797395224882]}}, {"type": "Feature", "properties": {"norad_id": 44299, "name": "COSMOS 2534 (758)", "group": "gnss", "lat": 53.58982577145282, "lon": -120.29188893146804, "alt_km": 19141.388358075248, "timestamp": "2025-12-07T03:52:32.739543+00:00", "meta": {"OBJECT_NAME": "COSMOS 2534 (758)", "OBJECT_ID": "2019-030A", "EPOCH": "2025-12-05T09:38:44.490912", "MEAN_MOTION": 2.13101983, "ECCENTRICITY": 0.00090311, "INCLINATION": 64.3653, "RA_OF_ASC_NODE": 199.1403, "ARG_OF_PERICENTER": 283.6175, "MEAN_ANOMALY": 229.7103, "EPHEMERIS_TYPE": 0, "CLASSIFICATION_TYPE": "U", "NORAD_CAT_ID": 44299, "ELEMENT_SET_NO": 999, "REV_AT_EPOCH": 5079, "BSTAR": 0, "MEAN_MOTION_DOT": 8.7e-07, "MEAN_MOTION_DDOT": 0}, "tle": {"line1": "1 44299U 19030A   25339.40190383  .00000087  00000+0  00000+0 0  9994", "line2": "2 44299  64.3653 199.1403 0009031 283.6175 229.7103  2.13101983 50792"}}, "geometry": {"type": "Point", "coordinates": [-120.29188893146804, 53.58982577145282]}}, {"type": "Feature", "properties": {"norad_id": 44337, "name": "BEIDOU-3 IGSO-2 (C39)", "group": "gnss", "lat": 55.05409752319456, "lon": -104.34363267328528, "alt_km": 35832.26652559505, "timestamp": "2025-12-07T03:52:32.739562+00:00", "meta": {"OBJECT_NAME": "BEIDOU-3 IGSO-2 (C39)", "OBJECT_ID": "2019-035A", "EPOCH": "2025-12-01T05:17:49.661952", "MEAN_MOTION": 1.00274502, "ECCENTRICITY": 0.00376064, "INCLINATION": 55.2223, "RA_OF_ASC_NODE": 160.6035, "ARG_OF_PERICENTER": 202.2564, "MEAN_ANOMALY": 266.4761, "EPHEMERIS_TYPE": 0, "CLASSIFICATION_TYPE": "U", "NORAD_CAT_ID": 44337, "ELEMENT_SET_NO": 999, "REV_AT_EPOCH": 2368, "BSTAR": 0, "MEAN_MOTION_DOT": -2.5e-07, "MEAN_MOTION_DDOT": 0}, "tle": {"line1": "1 44337U 19035A   25335.22071368 -.00000025  00000+0  00000+0 0  9992", "line2": "2 44337  55.2223 160.6035 0037606 202.2564 266.4761  1.00274502 23688"}}, "geometry": {"type": "Point", "coordinates": [-104.34363267328528, 55.05409752319456]}}, {"type": "Feature", "properties": {"norad_id": 44506, "name": "GPS BIII-2  (PRN 18)", "group": "gnss", "lat": -21.999194720995384, "lon": -37.22592517218463, "alt_km": 20291.957148912807, "timestamp": "2025-12-07T03:52:32.739581+00:00", "meta": {"OBJECT_NAME": "GPS BIII-2  (PRN 18)", "OBJECT_ID": "2019-056A", "EPOCH": "2025-12-06T10:33:28.812384", "MEAN_MOTION": 2.00565693, "ECCENTRICITY": 0.00577848, "INCLINATION": 55.7237, "RA_OF_ASC_NODE": 338.8025, "ARG_OF_PERICENTER": 198.47, "MEAN_ANOMALY": 333.0886, "EPHEMERIS_TYPE": 0, "CLASSIFICATION_TYPE": "U", "NORAD_CAT_ID": 44506, "ELEMENT_SET_NO": 999, "REV_AT_EPOCH": 4620, "BSTAR": 0, "MEAN_MOTION_DOT": -8e-07, "MEAN_MOTION_DDOT": 0}, "tle": {"line1": "1 44506U 19056A   25340.43991681 -.00000080  00000+0  00000+0 0  9992", "line2": "2 44506  55.7237 338.8025 0057784 198.4700 333.0886  2.00565693 46208"}}, "geometry": {"type": "Point", "coordinates": [-37.22592517218463, -21.999194720995384]}}]}